STARLINK-1485
1 45774C 20038AW  24350.54979167  .00020624  00000+0  13819-2 0  3500
2 45774  53.0544  52.8878 0001387  89.4577  68.3786 15.06378141    12
STARLINK-1485 DUPLICATE
1 45774C 20038AW  24350.55048611  .00020624  00000+0  13819-2 0  3500
2 45774  53.0544  52.8878 0001387  89.4577  68.3786 15.06378141    12
STARLINK-1489
1 45776C 20038AY  24350.55187500  .00030656  00000+0  86924-3 0  3509
2 45776  53.0483  26.9037 0001867  19.2719 129.1951 15.35644943    15
STARLINK-1489 DUPLICATE
1 45776C 20038AY  24350.55256944  .00030656  00000+0  86924-3 0  3509
2 45776  53.0483  26.9037 0001867  19.2719 129.1951 15.35644943    15
STARLINK-1490
1 45777C 20038AZ  24350.56368056  .00323410  00000+0  19615-2 0  3503
2 45777  53.0179 316.7859 0007788  50.3940 210.2850 15.76477376    19
STARLINK-1490 DUPLICATE
1 45777C 20038AZ  24350.56437500  .00323410  00000+0  19615-2 0  3503
2 45777  53.0179 316.7859 0007788  50.3940 210.2850 15.76477376    19
STARLINK-1491
1 45778C 20038BA  24350.57479167  .00042579  00000+0  11164-2 0  3506
2 45778  53.0492  43.8998 0004009  35.8942 173.5874 15.38050506    10
STARLINK-1491 DUPLICATE
1 45778C 20038BA  24350.57548611  .00042579  00000+0  11164-2 0  3506
2 45778  53.0492  43.8998 0004009  35.8942 173.5874 15.38050506    10
STARLINK-1492
1 45779C 20038BB  24350.55951389  .00237400  00000+0  12449-2 0  3502
2 45779  53.0089 280.5620 0006579 101.7090  29.6159 15.79804689    17
STARLINK-1492 DUPLICATE
1 45779C 20038BB  24350.56020833  .00237400  00000+0  12449-2 0  3502
2 45779  53.0089 280.5620 0006579 101.7090  29.6159 15.79804689    17
STARLINK-1496
1 45780C 20038BC  24350.54076389  .00029125  00000+0  19510-2 0  3500
2 45780  53.0544  52.9247 0001705  91.2945  37.5599 15.06376741    18
STARLINK-1496 DUPLICATE
1 45780C 20038BC  24350.54145833  .00029125  00000+0  19510-2 0  3500
2 45780  53.0544  52.9247 0001705  91.2945  37.5599 15.06376741    18
STARLINK-1497
1 45781C 20038BD  24350.56715278  .00056638  00000+0  30613-2 0  3506
2 45781  53.0551  50.5665 0003616 331.7148 239.5605 15.14122893    13
STARLINK-1497 DUPLICATE
1 45781C 20038BD  24350.56784722  .00056638  00000+0  30613-2 0  3506
2 45781  53.0551  50.5665 0003616 331.7148 239.5605 15.14122893    13
STARLINK-1510
1 45784C 20038BG  24350.56090278  .00042024  00000+0  20143-2 0  3506
2 45784  53.0574  46.6909 0001996 204.3489 357.2440 15.18356210    11
STARLINK-1510 DUPLICATE
1 45784C 20038BG  24350.56159722  .00042024  00000+0  20143-2 0  3506
2 45784  53.0574  46.6909 0001996 204.3489 357.2440 15.18356210    11
STARLINK-1513
1 45786C 20038BJ  24350.56645833  .00027292  00000+0  18283-2 0  3503
2 45786  53.0542  52.8126 0001299  99.1879   9.0726 15.06376342    11
STARLINK-1513 DUPLICATE
1 45786C 20038BJ  24350.56715277  .00027292  00000+0  18283-2 0  3503
2 45786  53.0542  52.8126 0001299  99.1879   9.0726 15.06376342    11
STARLINK-1517
1 45787C 20038BK  24350.56229167  .00026519  00000+0  17766-2 0  3508
2 45787  53.0544  52.8298 0001535  96.4264 309.1995 15.06376432    17
STARLINK-1517 DUPLICATE
1 45787C 20038BK  24350.56298611  .00026519  00000+0  17766-2 0  3508
2 45787  53.0544  52.8298 0001535  96.4264 309.1995 15.06376432    17
STARLINK-1522
1 46027C 20055A   24350.55881944  .00017915  00000+0  11997-2 0  3501
2 46027  53.0552 342.8429 0001709  87.1602  84.5826 15.06400960    19
STARLINK-1522 DUPLICATE
1 46027C 20055A   24350.55951388  .00017915  00000+0  11997-2 0  3501
2 46027  53.0552 342.8429 0001709  87.1602  84.5826 15.06400960    19
STARLINK-1523
1 46028C 20055B   24350.52270833  .00023443  00000+0  15699-2 0  3504
2 46028  53.0547 343.0094 0001543  82.5926 173.2494 15.06395275    18
STARLINK-1523 DUPLICATE
1 46028C 20055B   24350.52340277  .00023443  00000+0  15699-2 0  3504
2 46028  53.0547 343.0094 0001543  82.5926 173.2494 15.06395275    18
STARLINK-1526
1 46029C 20055C   24350.51298611  .00024318  00000+0  16283-2 0  3500
2 46029  53.0545 343.0518 0001674  96.1420 146.9776 15.06396911    11
STARLINK-1526 DUPLICATE
1 46029C 20055C   24350.51368055  .00024318  00000+0  16283-2 0  3500
2 46029  53.0545 343.0518 0001674  96.1420 146.9776 15.06396911    11
STARLINK-1534
1 46030C 20055D   24350.55465278  .01033700  00000+0  18339-2 0  3501
2 46030  53.0434 329.1083 0001174 119.9948 343.4671 16.00121742    17
STARLINK-1534 DUPLICATE
1 46030C 20055D   24350.55534722  .01033700  00000+0  18339-2 0  3501
2 46030  53.0434 329.1083 0001174 119.9948 343.4671 16.00121742    17
STARLINK-1544
1 46031C 20055E   24350.56854167  .01125700  00000+0  30786-2 0  3504
2 46031  53.0477 331.8034 0001595  93.8544 121.9887 15.92218058    15
STARLINK-1544 DUPLICATE
1 46031C 20055E   24350.56923611  .01125700  00000+0  30786-2 0  3504
2 46031  53.0477 331.8034 0001595  93.8544 121.9887 15.92218058    15
STARLINK-1555
1 46032C 20055F   24350.55118056  .00023542  00000+0  15765-2 0  3504
2 46032  53.0539 342.8786 0001349  83.6623  86.6427 15.06394565    13
STARLINK-1555 DUPLICATE
1 46032C 20055F   24350.55187500  .00023542  00000+0  15765-2 0  3504
2 46032  53.0539 342.8786 0001349  83.6623  86.6427 15.06394565    13
STARLINK-1556
1 46033C 20055G   24350.54631944  .00019320  00000+0  12939-2 0  3509
2 46033  53.0541 342.9041 0001576  98.5294 145.4208 15.06395306    18
STARLINK-1556 DUPLICATE
1 46033C 20055G   24350.54701388  .00019320  00000+0  12939-2 0  3509
2 46033  53.0541 342.9041 0001576  98.5294 145.4208 15.06395306    18
STARLINK-1557
1 46034C 20055H   24350.55048611  .00022056  00000+0  14765-2 0  3503
2 46034  53.0545 342.8827 0001412  85.6378 160.8505 15.06407383    13
STARLINK-1557 DUPLICATE
1 46034C 20055H   24350.55118055  .00022056  00000+0  14765-2 0  3503
2 46034  53.0545 342.8827 0001412  85.6378 160.8505 15.06407383    13
STARLINK-1558
1 46035C 20055J   24350.55743056  .00019436  00000+0  13016-2 0  3505
2 46035  53.0541 342.8548 0001597  91.0115 153.2194 15.06398290    10
STARLINK-1558 DUPLICATE
1 46035C 20055J   24350.55812500  .00019436  00000+0  13016-2 0  3505
2 46035  53.0541 342.8548 0001597  91.0115 153.2194 15.06398290    10
STARLINK-1560
1 46036C 20055K   24350.54840278  .00020820  00000+0  13942-2 0  3506
2 46036  53.0544 342.8918 0001516  84.2634 190.9761 15.06397632    13
STARLINK-1560 DUPLICATE
1 46036C 20055K   24350.54909722  .00020820  00000+0  13942-2 0  3506
2 46036  53.0544 342.8918 0001516  84.2634 190.9761 15.06397632    13
STARLINK-1565
1 46037C 20055L   24350.45256944  .00097990  00000+0  42410-2 0  3502
2 46037  53.0440 338.4500 0007380  45.9837  69.7178 15.21778514    15
STARLINK-1565 DUPLICATE
1 46037C 20055L   24350.45326388  .00097990  00000+0  42410-2 0  3502
2 46037  53.0440 338.4500 0007380  45.9837  69.7178 15.21778514    15
STARLINK-1567
1 46038C 20055M   24350.55812500  .00017603  00000+0  11783-2 0  3502
2 46038  53.0540 342.8518 0001349  91.2465 176.7454 15.06415767    12
STARLINK-1567 DUPLICATE
1 46038C 20055M   24350.55881944  .00017603  00000+0  11783-2 0  3502
2 46038  53.0540 342.8518 0001349  91.2465 176.7454 15.06415767    12
STARLINK-1569
1 46039C 20055N   24350.56090278  .00019664  00000+0  13167-2 0  3501
2 46039  53.0539 342.8348 0001623  89.7346 153.3094 15.06401106    10
STARLINK-1569 DUPLICATE
1 46039C 20055N   24350.56159722  .00019664  00000+0  13167-2 0  3501
2 46039  53.0539 342.8348 0001623  89.7346 153.3094 15.06401106    10
STARLINK-1580
1 46041C 20055Q   24350.47965278  .01145500  00000+0  38689-1 0  3500
2 46041  53.0528 342.4718 0001410  88.2646 273.8393 15.28982521    18
STARLINK-1580 DUPLICATE
1 46041C 20055Q   24350.48034722  .01145500  00000+0  38689-1 0  3500
2 46041  53.0528 342.4718 0001410  88.2646 273.8393 15.28982521    18
STARLINK-1581
1 46042C 20055R   24350.56437500  .01138200  00000+0  37690-1 0  3503
2 46042  53.0558 341.9595 0001256  63.8395 200.1203 15.29626595    17
STARLINK-1581 DUPLICATE
1 46042C 20055R   24350.56506944  .01138200  00000+0  37690-1 0  3503
2 46042  53.0558 341.9595 0001256  63.8395 200.1203 15.29626595    17
STARLINK-1582
1 46043C 20055S   24350.55326389  .00021775  00000+0  14578-2 0  3503
2 46043  53.0544 342.8684 0001549  91.2272  70.4311 15.06405843    10
STARLINK-1582 DUPLICATE
1 46043C 20055S   24350.55395833  .00021775  00000+0  14578-2 0  3503
2 46043  53.0544 342.8684 0001549  91.2272  70.4311 15.06405843    10
STARLINK-1591
1 46045C 20055U   24350.56368056  .00021513  00000+0  14405-2 0  3502
2 46045  53.0546 342.8233 0001533 100.2450 337.9327 15.06400150    10
STARLINK-1591 DUPLICATE
1 46045C 20055U   24350.56437500  .00021513  00000+0  14405-2 0  3502
2 46045  53.0546 342.8233 0001533 100.2450 337.9327 15.06400150    10
STARLINK-1524
1 46047C 20055W   24350.55395833  .00018716  00000+0  12531-2 0  3505
2 46047  53.0544 332.8657 0001540  97.5782 182.8457 15.06407973    14
STARLINK-1524 DUPLICATE
1 46047C 20055W   24350.55465277  .00018716  00000+0  12531-2 0  3505
2 46047  53.0544 332.8657 0001540  97.5782 182.8457 15.06407973    14
STARLINK-1527
1 46048C 20055X   24350.55812500  .00017942  00000+0  12012-2 0  3505
2 46048  53.0541 332.8460 0001730  93.1707 229.8520 15.06407364    11
STARLINK-1527 DUPLICATE
1 46048C 20055X   24350.55881944  .00017942  00000+0  12012-2 0  3505
2 46048  53.0541 332.8460 0001730  93.1707 229.8520 15.06407364    11
STARLINK-1540
1 46051C 20055AA  24350.54840278  .00018830  00000+0  12609-2 0  3500
2 46051  53.0543 332.8926 0001530  82.8192   7.4308 15.06402581    15
STARLINK-1540 DUPLICATE
1 46051C 20055AA  24350.54909722  .00018830  00000+0  12609-2 0  3500
2 46051  53.0543 332.8926 0001530  82.8192   7.4308 15.06402581    15
STARLINK-1541
1 46052C 20055AB  24350.55187500  .00021481  00000+0  14384-2 0  3502
2 46052  53.0547 332.8737 0001702  98.1754  90.9306 15.06399997    16
STARLINK-1541 DUPLICATE
1 46052C 20055AB  24350.55256944  .00021481  00000+0  14384-2 0  3502
2 46052  53.0547 332.8737 0001702  98.1754  90.9306 15.06399997    16
